{
    "links": {
        "self": "http://www.neowsapp.com/rest/v1/neo/3978225?api_key=iIulBulltgU6a56xZRHN4H3l9WmuAYTsLGpBGhQ2"
    },
    "id": "3978225",
    "neo_reference_id": "3978225",
    "name": "(2020 AN2)",
    "designation": "2020 AN2",
    "nasa_jpl_url": "http://ssd.jpl.nasa.gov/sbdb.cgi?sstr=3978225",
    "absolute_magnitude_h": 26.5,
    "estimated_diameter": {
        "kilometers": {
            "estimated_diameter_min": 0.0133215567,
            "estimated_diameter_max": 0.0297879063
        },
        "meters": {
            "estimated_diameter_min": 13.3215566698,
            "estimated_diameter_max": 29.7879062798
        },
        "miles": {
            "estimated_diameter_min": 0.008277629,
            "estimated_diameter_max": 0.0185093411
        },
        "feet": {
            "estimated_diameter_min": 43.7058959846,
            "estimated_diameter_max": 97.7293544391
        }
    },
    "is_potentially_hazardous_asteroid": false,
    "close_approach_data": [
        {
            "close_approach_date": "2020-01-01",
            "close_approach_date_full": "2020-Jan-01 21:18",
            "epoch_date_close_approach": 1577913480000,
            "relative_velocity": {
                "kilometers_per_second": "15.3528156363",
                "kilometers_per_hour": "55270.1362905576",
                "miles_per_hour": "34342.7132967634"
            },
            "miss_distance": {
                "astronomical": "0.0202143162",
                "lunar": "7.8633690018",
                "kilometers": "3024018.647026494",
                "miles": "1879038.0551098572"
            },
            "orbiting_body": "Earth"
        }
    ],
    "orbital_data": {
        "orbit_id": "1",
        "orbit_determination_date": "2020-01-07 11:42:11",
        "first_observation_date": "2020-01-06",
        "last_observation_date": "2020-01-07",
        "data_arc_in_days": 1,
        "observations_used": 18,
        "orbit_uncertainty": "9",
        "minimum_orbit_intersection": ".00563207",
        "jupiter_tisserand_invariant": "3.148",
        "epoch_osculation": "2458855.5",
        "eccentricity": ".6655600997875565",
        "semi_major_axis": "2.449681643434989",
        "inclination": "1.022832157339709",
        "ascending_node_longitude": "259.8583225258365",
        "orbital_period": "1400.434814303535",
        "perihelion_distance": ".8192712843826523",
        "perihelion_argument": "144.4984338580778",
        "aphelion_distance": "4.080092002487326",
        "perihelion_time": "2458813.681481417934",
        "mean_anomaly": "10.74999459866381",
        "mean_motion": ".2570630180877325",
        "equinox": "J2000",
        "orbit_class": {
            "orbit_class_type": "APO",
            "orbit_class_description": "Near-Earth asteroid orbits which cross the Earth’s orbit similar to that of 1862 Apollo",
            "orbit_class_range": "a (semi-major axis) > 1.0 AU; q (perihelion) < 1.017 AU"
        }
    },
    "is_sentry_object": false
}